OBJECT_NAME,OBJECT_ID,EPOCH,MEAN_MOTION,ECCENTRICITY,INCLINATION,RA_OF_ASC_NODE,ARG_OF_PERICENTER,MEAN_ANOMALY,EPHEMERIS_TYPE,CLASSIFICATION_TYPE,NORAD_CAT_ID,ELEMENT_SET_NO,REV_AT_EPOCH,BSTAR,MEAN_MOTION_DOT,MEAN_MOTION_DDOT
ONEWEB-0410,2022-012A,2026-07-12T12:05:47.193216,13.17649695,.0002043,87.9153,0.8231,57.9567,302.1763,0,U,51622,999,21703,-.76031792E-4,-.17E-6,0
ONEWEB-0411,2022-012B,2026-07-12T14:14:04.392096,13.10377997,.0002252,87.8825,31.2050,96.4380,263.7004,0,U,51623,999,21261,-.4455E-3,-.143E-5,0
ONEWEB-0415,2022-012C,2026-07-12T14:09:10.328832,13.10377986,.0002134,87.8822,31.2038,87.5344,272.6027,0,U,51624,999,21261,-.92666E-3,-.311E-5,0
ONEWEB-0416,2022-012D,2026-07-12T14:26:18.158784,13.10377493,.0002203,87.8813,31.2179,84.4642,275.6736,0,U,51625,999,21265,.80098E-3,.292E-5,0
ONEWEB-0422,2022-012E,2026-07-12T12:20:21.694272,13.17650361,.00018896,87.9149,0.8219,115.5798,244.5529,0,U,51626,999,21714,-.16649702E-4,.6E-7,0
ONEWEB-0423,2022-012F,2026-07-12T12:10:38.756064,13.17648025,.00017926,87.9140,0.8265,89.1367,270.9970,0,U,51627,999,21703,.19851226E-4,.21E-6,0
ONEWEB-0425,2022-012G,2026-07-12T12:51:01.602144,13.10375445,.00018444,87.8822,31.2160,71.4414,288.6913,0,U,51628,999,21264,.18088144E-2,.644E-5,0
ONEWEB-0428,2022-012H,2026-07-12T14:11:37.221792,13.10378417,.000184,87.8810,31.2103,85.6892,274.4445,0,U,51629,999,21261,-.68111E-3,-.225E-5,0
ONEWEB-0431,2022-012J,2026-07-12T13:27:24.981120,13.10369365,.0002313,87.8815,31.2100,99.1346,261.0043,0,U,51630,999,21266,-.24989E-3,-.75E-6,0
ONEWEB-0434,2022-012K,2026-07-12T12:56:06.769536,13.10373936,.000164,87.8831,31.2413,59.6693,300.4597,0,U,51631,999,21264,.1951876E-2,.694E-5,0
ONEWEB-0435,2022-012L,2026-07-12T13:05:40.546752,13.10374363,.0001759,87.8813,31.2234,96.5529,263.5798,0,U,51632,999,21263,.17586607E-2,.627E-5,0
ONEWEB-0436,2022-012M,2026-07-12T11:58:29.223840,13.17647210,.00018855,87.9148,0.8112,99.0349,261.0996,0,U,51633,999,21701,-.75136414E-4,-.16E-6,0
ONEWEB-0438,2022-012N,2026-07-12T12:43:39.859680,13.10376906,.00018303,87.8818,31.2306,78.6434,281.4899,0,U,51634,999,21266,.1378159E-2,.494E-5,0
ONEWEB-0439,2022-012P,2026-07-12T12:48:33.976512,13.10375591,.00017522,87.8824,31.2174,82.2944,277.8383,0,U,51635,999,21264,.17905556E-2,.638E-5,0
ONEWEB-0442,2022-012Q,2026-07-12T11:47:34.728288,13.17650816,.00018325,87.9140,0.8435,73.2932,286.8401,0,U,51636,999,21700,-.20367968E-4,.5E-7,0
ONEWEB-0443,2022-012R,2026-07-12T12:15:29.664864,13.17649358,.00014825,87.9138,0.8410,93.5946,266.5355,0,U,51637,999,21705,-.17269565E-3,-.54E-6,0
ONEWEB-0444,2022-012S,2026-07-12T14:23:50.426016,13.10377889,.0001591,87.8816,31.2012,87.9676,272.1633,0,U,51638,999,21266,.57007E-3,.212E-5,0
ONEWEB-0445,2022-012T,2026-07-12T13:03:13.104288,13.10375151,.00019328,87.8826,31.2034,86.1485,273.9863,0,U,51639,999,21266,.172446E-2,.615E-5,0
ONEWEB-0446,2022-012U,2026-07-12T14:21:23.840640,13.10384763,.0001806,87.8875,31.2253,79.3254,280.8076,0,U,51640,999,21265,-.98043E-2,-.3409E-4,0
ONEWEB-0448,2022-012V,2026-07-12T14:28:43.850784,13.10378842,.0001795,87.8811,31.2135,87.7639,272.3694,0,U,51641,999,21262,.11376E-2,.41E-5,0
ONEWEB-0449,2022-012W,2026-07-12T12:46:06.324960,13.10374632,.00019176,87.8816,31.2157,68.1549,291.9783,0,U,51642,999,21262,.156236E-2,.558E-5,0
ONEWEB-0451,2022-012X,2026-07-12T10:04:17.122368,13.17650955,.00017467,87.9151,0.8254,85.4643,274.6688,0,U,51643,999,21698,.56893175E-4,.35E-6,0
ONEWEB-0452,2022-012Y,2026-07-12T10:01:50.978496,13.17647223,.00015744,87.9139,0.8600,88.0899,272.0413,0,U,51644,999,21699,-.47559082E-4,-.6E-7,0
ONEWEB-0456,2022-012AA,2026-07-12T12:58:18.278976,13.10371851,.00017775,87.8823,31.2020,93.7420,266.3910,0,U,51646,999,21266,.19740695E-2,.702E-5,0
ONEWEB-0457,2022-012AB,2026-07-12T14:16:18.369120,13.10378805,.0002104,87.8815,31.2074,77.9056,282.2307,0,U,51647,999,21267,-.26067E-3,-.78E-6,0
ONEWEB-0458,2022-012AC,2026-07-12T12:57:06.427872,13.10372585,.0001624,87.8814,31.2063,87.9848,272.1465,0,U,51648,999,21262,.19117396E-2,.68E-5,0
ONEWEB-0461,2022-012AD,2026-07-12T17:50:50.597952,13.17649792,.0001968,87.9151,0.7748,89.8984,270.2373,0,U,51649,999,21725,-.32648E-4,0,0
ONEWEB-0463,2022-012AE,2026-07-12T10:06:43.292160,13.17650392,.00020163,87.9139,0.8587,89.5851,270.5512,0,U,51650,999,21699,-.19293042E-4,.5E-7,0
ONEWEB-0464,2022-012AF,2026-07-12T12:53:26.850048,13.10373100,.00015825,87.8814,31.2286,93.8042,266.3266,0,U,51651,999,21264,.18957352E-2,.674E-5,0
ONEWEB-0468,2022-012AG,2026-07-12T13:00:45.077760,13.10371031,.00016733,87.8812,31.2208,93.7901,266.3418,0,U,51652,999,21262,.18284219E-2,.651E-5,0
