ONEWEB-0410             
1 51622U 22012A   26193.50401844 -.00000017  00000+0 -76032-4 0  9991
2 51622  87.9153   0.8231 0002043  57.9567 302.1763 13.17649695217039
ONEWEB-0411             
1 51623U 22012B   26193.59310639 -.00000143  00000+0 -44550-3 0  9991
2 51623  87.8825  31.2050 0002252  96.4380 263.7004 13.10377997212610
ONEWEB-0415             
1 51624U 22012C   26193.58970288 -.00000311  00000+0 -92666-3 0  9991
2 51624  87.8822  31.2038 0002134  87.5344 272.6027 13.10377986212616
ONEWEB-0416             
1 51625U 22012D   26193.60159906  .00000292  00000+0  80098-3 0  9993
2 51625  87.8813  31.2179 0002203  84.4642 275.6736 13.10377493212654
ONEWEB-0422             
1 51626U 22012E   26193.51413998  .00000006  00000+0 -16650-4 0  9996
2 51626  87.9149   0.8219 0001889 115.5798 244.5529 13.17650361217141
ONEWEB-0423             
1 51627U 22012F   26193.50739301  .00000021  00000+0  19851-4 0  9997
2 51627  87.9140   0.8265 0001792  89.1367 270.9970 13.17648025217030
ONEWEB-0425             
1 51628U 22012G   26193.53543521  .00000644  00000+0  18088-2 0  9998
2 51628  87.8822  31.2160 0001844  71.4414 288.6913 13.10375445212645
ONEWEB-0428             
1 51629U 22012H   26193.59140303 -.00000225  00000+0 -68111-3 0  9996
2 51629  87.8810  31.2103 0001840  85.6892 274.4445 13.10378417212615
ONEWEB-0431             
1 51630U 22012J   26193.56070580 -.00000075  00000+0 -24989-3 0  9992
2 51630  87.8815  31.2100 0002313  99.1346 261.0043 13.10369365212662
ONEWEB-0434             
1 51631U 22012K   26193.53896724  .00000694  00000+0  19519-2 0  9993
2 51631  87.8831  31.2413 0001640  59.6693 300.4597 13.10373936212645
ONEWEB-0435             
1 51632U 22012L   26193.54560818  .00000627  00000+0  17587-2 0  9996
2 51632  87.8813  31.2234 0001759  96.5529 263.5798 13.10374363212632
ONEWEB-0436             
1 51633U 22012M   26193.49894935 -.00000016  00000+0 -75136-4 0  9991
2 51633  87.9148   0.8112 0001885  99.0349 261.0996 13.17647210217011
ONEWEB-0438             
1 51634U 22012N   26193.53032245  .00000494  00000+0  13782-2 0  9990
2 51634  87.8818  31.2306 0001830  78.6434 281.4899 13.10376906212664
ONEWEB-0439             
1 51635U 22012P   26193.53372658  .00000638  00000+0  17906-2 0  9998
2 51635  87.8824  31.2174 0001752  82.2944 277.8383 13.10375591212649
ONEWEB-0442             
1 51636U 22012Q   26193.49137417  .00000005  00000+0 -20368-4 0  9993
2 51636  87.9140   0.8435 0001832  73.2932 286.8401 13.17650816217009
ONEWEB-0443             
1 51637U 22012R   26193.51076001 -.00000054  00000+0 -17270-3 0  9990
2 51637  87.9138   0.8410 0001482  93.5946 266.5355 13.17649358217058
ONEWEB-0444             
1 51638U 22012S   26193.59988919  .00000212  00000+0  57007-3 0  9995
2 51638  87.8816  31.2012 0001591  87.9676 272.1633 13.10377889212669
ONEWEB-0445             
1 51639U 22012T   26193.54390167  .00000615  00000+0  17245-2 0  9999
2 51639  87.8826  31.2034 0001932  86.1485 273.9863 13.10375151212667
ONEWEB-0446             
1 51640U 22012U   26193.59819260 -.00003409  00000+0 -98043-2 0  9997
2 51640  87.8875  31.2253 0001806  79.3254 280.8076 13.10384763212655
ONEWEB-0448             
1 51641U 22012V   26193.60328531  .00000410  00000+0  11376-2 0  9997
2 51641  87.8811  31.2135 0001795  87.7639 272.3694 13.10378842212622
ONEWEB-0449             
1 51642U 22012W   26193.53201765  .00000558  00000+0  15624-2 0  9992
2 51642  87.8816  31.2157 0001917  68.1549 291.9783 13.10374632212620
ONEWEB-0451             
1 51643U 22012X   26193.41964262  .00000035  00000+0  56893-4 0  9993
2 51643  87.9151   0.8254 0001746  85.4643 274.6688 13.17650955216988
ONEWEB-0452             
1 51644U 22012Y   26193.41795114 -.00000006  00000+0 -47559-4 0  9991
2 51644  87.9139   0.8600 0001574  88.0899 272.0413 13.17647223216994
ONEWEB-0456             
1 51646U 22012AA  26193.54048934  .00000702  00000+0  19741-2 0  9999
2 51646  87.8823  31.2020 0001777  93.7420 266.3910 13.10371851212669
ONEWEB-0457             
1 51647U 22012AB  26193.59465705 -.00000078  00000+0 -26067-3 0  9992
2 51647  87.8815  31.2074 0002104  77.9056 282.2307 13.10378805212678
ONEWEB-0458             
1 51648U 22012AC  26193.53965773  .00000680  00000+0  19117-2 0  9991
2 51648  87.8814  31.2063 0001624  87.9848 272.1465 13.10372585212629
ONEWEB-0461             
1 51649U 22012AD  26193.74364118  .00000000  00000+0 -32648-4 0  9994
2 51649  87.9151   0.7748 0001968  89.8984 270.2373 13.17649792217254
ONEWEB-0463             
1 51650U 22012AE  26193.42133440  .00000005  00000+0 -19293-4 0  9999
2 51650  87.9139   0.8587 0002016  89.5851 270.5512 13.17650392216995
ONEWEB-0464             
1 51651U 22012AF  26193.53711632  .00000674  00000+0  18957-2 0  9992
2 51651  87.8814  31.2286 0001582  93.8042 266.3266 13.10373100212645
ONEWEB-0468             
1 51652U 22012AG  26193.54218840  .00000651  00000+0  18284-2 0  9995
2 51652  87.8812  31.2208 0001673  93.7901 266.3418 13.10371031212620
